NORAD_CAT_ID,OBJECT_NAME,OBJECT_TYPE,EPOCH,MEAN_MOTION,ECCENTRICITY,INCLINATION,RA_OF_ASC_NODE,ARG_OF_PERICENTER,MEAN_ANOMALY,BSTAR,MEAN_MOTION_DOT,MEAN_MOTION_DDOT,TLE_LINE0,TLE_LINE1,TLE_LINE2,SEMIMAJOR_AXIS,PERIOD,APOGEE,PERIGEE,DECAYED
51468.0,STARLINK-3174,PAYLOAD,2023-02-26 13:04:48,15.08845267,0.0001023,53.2147,209.2869,82.9959,277.115,0.000329,4.953e-05,0.0,0 STARLINK-3174,1 51468U 22010N   23057.54500907  .00004953  00000-0  32900-3 0  9994,2 51468  53.2147 209.2869 0001023  82.9959 277.1150 15.08845267 59375,6917.864,95.437,540.437,539.022,0.0
51468.0,STARLINK-3174,PAYLOAD,2023-02-26 19:26:20,15.08857517,0.0001147,53.215,208.0976,85.347,274.7653,0.00054462,8.394e-05,0.0,0 STARLINK-3174,1 51468U 22010N   23057.80996473  .00008394  00000-0  54462-3 0  9990,2 51468  53.2150 208.0976 0001147  85.3470 274.7653 15.08857517 60225,6917.827,95.436,540.485,538.898,0.0
51468.0,STARLINK-3174,PAYLOAD,2023-02-27 03:23:16,15.0884362,9.85e-05,53.2147,206.6101,91.403,268.7075,0.00015544,2.187e-05,0.0,0 STARLINK-3174,1 51468U 22010N   23058.14116693  .00002187  00000-0  15544-3 0  9998,2 51468  53.2147 206.6101 0000985  91.4030 268.7075 15.08843620 60270,6917.869,95.437,540.416,539.053,0.0
51468.0,STARLINK-3174,PAYLOAD,2023-02-27 16:06:21,15.08876706,8.84e-05,53.2146,204.2312,89.116,270.9934,0.0011678,0.00018365,0.0,0 STARLINK-3174,1 51468U 22010N   23058.67107865  .00018365  00000-0  11678-2 0  9995,2 51468  53.2146 204.2312 0000884  89.1160 270.9934 15.08876706 60352,6917.768,95.435,540.245,539.022,0.0
51468.0,STARLINK-3174,PAYLOAD,2023-02-27 20:52:30,15.08891477,0.0001228,53.2143,203.3388,95.5089,264.6043,0.0018002,0.00028519,0.0,0 STARLINK-3174,1 51468U 22010N   23058.86979384  .00028519  00000-0  18002-2 0  9999,2 51468  53.2143 203.3388 0001228  95.5089 264.6043 15.08891477 59571,6917.723,95.434,540.438,538.739,0.0
51468.0,STARLINK-3174,PAYLOAD,2023-02-28 12:46:22,15.08843354,0.0001326,53.2147,200.366,94.6119,265.5024,0.0009221,0.00014419,0.0,0 STARLINK-3174,1 51468U 22010N   23059.53220243  .00014419  00000-0  92210-3 0  9995,2 51468  53.2147 200.3660 0001326  94.6119 265.5024 15.08843354 59679,6917.87,95.437,540.652,538.818,0.0
51468.0,STARLINK-3174,PAYLOAD,2023-02-28 14:21:45,15.08842579,0.0001268,53.2148,200.0688,93.7479,266.3658,0.0010715,0.00016807,0.0,0 STARLINK-3174,1 51468U 22010N   23059.59844271  .00016807  00000-0  10715-2 0  9996,2 51468  53.2148 200.0688 0001268  93.7479 266.3658 15.08842579 60493,6917.873,95.437,540.615,538.86,0.0
51468.0,STARLINK-3174,PAYLOAD,2023-02-28 20:43:17,15.08847413,0.0001284,53.2148,198.8793,79.7296,280.3841,0.0011954,0.00018792,0.0,0 STARLINK-3174,1 51468U 22010N   23059.86340223  .00018792  00000-0  11954-2 0  9995,2 51468  53.2148 198.8793 0001284  79.7296 280.3841 15.08847413 59729,6917.858,95.437,540.611,538.834,0.0
51468.0,STARLINK-3174,PAYLOAD,2023-03-01 09:26:24,15.08822954,0.0001512,53.215,196.4985,92.342,267.7745,0.0012133,0.00019065,0.0,0 STARLINK-3174,1 51468U 22010N   23060.39333346  .00019065  00000-0  12133-2 0  9997,2 51468  53.2150 196.4985 0001512  92.3420 267.7745 15.08822954 60618,6917.932,95.439,540.843,538.752,0.0
51468.0,STARLINK-3174,PAYLOAD,2023-03-01 20:34:06,15.08838283,0.0001164,53.2149,194.4178,73.6653,286.4467,0.0015889,0.00025089,0.0,0 STARLINK-3174,1 51468U 22010N   23060.85701711  .00025089  00000-0  15889-2 0  9997,2 51468  53.2149 194.4178 0001164  73.6653 286.4467 15.08838283 59878,6917.886,95.438,540.556,538.945,0.0
51468.0,STARLINK-3174,PAYLOAD,2023-03-02 01:20:16,15.08828157,0.0001957,53.2148,193.525,82.7996,277.3218,0.00049462,7.59e-05,0.0,0 STARLINK-3174,1 51468U 22010N   23061.05574242  .00007590  00000-0  49462-3 0  9999,2 51468  53.2148 193.5250 0001957  82.7996 277.3218 15.08828157 60716,6917.917,95.438,541.135,538.428,0.0
51468.0,STARLINK-3174,PAYLOAD,2023-03-02 18:49:30,15.0887057,0.0001228,53.2151,190.2548,75.3064,284.8064,0.0019679,0.00031196,0.0,0 STARLINK-3174,1 51468U 22010N   23061.78437507  .00031196  00000-0  19679-2 0  9996,2 51468  53.2151 190.2548 0001228  75.3064 284.8064 15.08870570 60010,6917.787,95.436,540.501,538.802,0.0
51468.0,STARLINK-3174,PAYLOAD,2023-03-03 12:18:44,15.08877459,0.0001076,53.215,186.9836,105.0891,255.022,0.0024047,0.0003823,0.0,0 STARLINK-3174,1 51468U 22010N   23062.51300930  .00038230  00000-0  24047-2 0  9998,2 51468  53.2150 186.9836 0001076 105.0891 255.0220 15.08877459 60939,6917.766,95.435,540.375,538.887,0.0
51468.0,STARLINK-3174,PAYLOAD,2023-03-03 18:40:16,15.08894886,0.000182,53.2153,185.7938,67.531,292.5875,0.0023837,0.0003791,0.0,0 STARLINK-3174,1 51468U 22010N   23062.77796417  .00037910  00000-0  23837-2 0  9995,2 51468  53.2153 185.7938 0001820  67.5310 292.5875 15.08894886 60167,6917.713,95.434,540.837,538.319,0.0
51468.0,STARLINK-3174,PAYLOAD,2023-03-04 07:23:21,15.08839835,0.0001842,53.2137,183.4174,82.6908,277.4293,0.00023649,3.478e-05,0.0,0 STARLINK-3174,1 51468U 22010N   23063.30788858  .00003478  00000-0  23649-3 0  9999,2 51468  53.2137 183.4174 0001842  82.6908 277.4293 15.08839835 61059,6917.881,95.438,541.02,538.472,0.0
51468.0,STARLINK-3174,PAYLOAD,2023-03-04 10:34:08,15.08837366,0.0001839,53.2162,182.8243,83.4918,276.6283,0.00087514,0.00013666,0.0,0 STARLINK-3174,1 51468U 22010N   23063.44037132  .00013666  00000-0  87514-3 0  9997,2 51468  53.2162 182.8243 0001839  83.4918 276.6283 15.08837366 60262,6917.888,95.438,541.026,538.481,0.0
51468.0,STARLINK-3174,PAYLOAD,2023-03-04 16:55:40,15.08858798,0.0001501,53.2155,181.6306,100.5527,259.5634,0.0013866,0.0002186,0.0,0 STARLINK-3174,1 51468U 22010N   23063.70532613  .00021860  00000-0  13866-2 0  9993,2 51468  53.2155 181.6306 0001501 100.5527 259.5634 15.08858798 61111,6917.823,95.436,540.726,538.65,0.0
51468.0,STARLINK-3174,PAYLOAD,2023-03-05 00:52:36,15.08834627,0.0001701,53.2158,180.1451,92.1563,267.9624,0.00037658,5.709e-05,0.0,0 STARLINK-3174,1 51468U 22010N   23064.03653352  .00005709  00000-0  37658-3 0  9994,2 51468  53.2158 180.1451 0001701  92.1563 267.9624 15.08834627 61169,6917.897,95.438,540.939,538.585,0.0
51468.0,STARLINK-3174,PAYLOAD,2023-03-06 11:51:05,15.08849354,0.0001329,53.2155,173.5992,96.6588,263.4555,0.00063815,9.885e-05,0.0,0 STARLINK-3174,1 51468U 22010N   23065.49381318  .00009885  00000-0  63815-3 0  9998,2 51468  53.2155 173.5992 0001329  96.6588 263.4555 15.08849354 61385,6917.852,95.437,540.636,538.797,0.0
51468.0,STARLINK-3174,PAYLOAD,2023-03-06 18:12:37,15.08868102,0.000128,53.2156,172.4132,90.2756,269.8383,0.0016671,0.00026364,0.0,0 STARLINK-3174,1 51468U 22010N   23065.75876675  .00026364  00000-0  16671-2 0  9990,2 51468  53.2156 172.4132 0001280  90.2756 269.8383 15.08868102 61429,6917.794,95.436,540.545,538.774,0.0
51468.0,STARLINK-3174,PAYLOAD,2023-03-07 00:34:10,15.08833068,0.0001523,53.2154,171.2245,83.1722,276.9443,-0.00043868,-7.261e-05,0.0,0 STARLINK-3174,1 51468U 22010N   23066.02373539 -.00007261  00000-0 -43868-3 0  9998,2 51468  53.2154 171.2245 0001523  83.1722 276.9443 15.08833068 61466,6917.902,95.438,540.82,538.713,0.0
51468.0,STARLINK-3174,PAYLOAD,2023-03-07 16:28:02,15.08855768,0.0001685,53.2171,168.249,96.2022,263.9162,0.00093893,0.00014693,0.0,0 STARLINK-3174,1 51468U 22010N   23066.68613495  .00014693  00000-0  93893-3 0  9996,2 51468  53.2171 168.2490 0001685  96.2022 263.9162 15.08855768 61566,6917.832,95.437,540.863,538.532,0.0
51468.0,STARLINK-3174,PAYLOAD,2023-03-08 09:57:17,15.08835767,0.0001331,53.2167,164.9794,91.1072,269.0072,0.00033195,4.998e-05,0.0,0 STARLINK-3174,1 51468U 22010N   23067.41478306  .00004998  00000-0  33195-3 0  9994,2 51468  53.2167 164.9794 0001331  91.1072 269.0072 15.08835767 61674,6917.893,95.438,540.679,538.838,0.0
51468.0,STARLINK-3174,PAYLOAD,2023-03-09 14:34:13,15.08867761,0.0001543,53.2153,159.6269,120.2898,239.8247,0.001216,0.00019132,0.0,0 STARLINK-3174,1 51468U 22010N   23068.60709767  .00019132  00000-0  12160-2 0  9998,2 51468  53.2153 159.6269 0001543 120.2898 239.8247 15.08867761 61850,6917.796,95.436,540.728,538.593,0.0
51468.0,STARLINK-3174,PAYLOAD,2023-03-10 11:14:13,15.08868573,0.0001422,53.2152,155.7598,119.0097,241.1038,0.0006715,0.00010423,0.0,0 STARLINK-3174,1 51468U 22010N   23069.46820738  .00010423  00000-0  67150-3 0  9999,2 51468  53.2152 155.7598 0001422 119.0097 241.1038 15.08868573 61984,6917.793,95.436,540.642,538.674,0.0
51468.0,STARLINK-3174,PAYLOAD,2023-03-10 14:24:59,15.08871158,0.0001369,53.2157,155.1682,110.9444,249.1695,0.00068162,0.00010586,0.0,0 STARLINK-3174,1 51468U 22010N   23069.60068509  .00010586  00000-0  68162-3 0  9999,2 51468  53.2157 155.1682 0001369 110.9444 249.1695 15.08871158 61196,6917.785,95.436,540.597,538.703,0.0
51468.0,STARLINK-3174,PAYLOAD,2023-03-10 22:21:55,15.08826633,0.0002206,53.2151,153.6785,104.4326,255.6911,-0.00034689,-5.803e-05,0.0,0 STARLINK-3174,1 51468U 22010N   23069.93189320 -.00005803  00000-0 -34689-3 0  9995,2 51468  53.2151 153.6785 0002206 104.4326 255.6911 15.08826633 62052,6917.921,95.438,541.312,538.26,0.0
51468.0,STARLINK-3174,PAYLOAD,2023-03-11 09:29:38,15.08816735,0.0002201,53.2153,151.5988,105.3031,254.8205,0.00011188,1.492e-05,0.0,0 STARLINK-3174,1 51468U 22010N   23070.39558295  .00001492  00000-0  11188-3 0  9995,2 51468  53.2153 151.5988 0002201 105.3031 254.8205 15.08816735 61311,6917.952,95.439,541.339,538.294,0.0
51468.0,STARLINK-3174,PAYLOAD,2023-03-11 17:26:33,15.08858804,0.0001834,53.214,150.109,142.8645,217.2474,0.0010271,0.00016105,0.0,0 STARLINK-3174,1 51468U 22010N   23070.72677152  .00016105  00000-0  10271-2 0  9994,2 51468  53.2140 150.1090 0001834 142.8645 217.2474 15.08858804 62173,6917.823,95.436,540.957,538.419,0.0
51468.0,STARLINK-3174,PAYLOAD,2023-03-12 12:31:12,15.08831568,0.0001256,53.2143,146.5442,120.0516,240.0601,0.00037663,5.71e-05,0.0,0 STARLINK-3174,1 51468U 22010N   23071.52167178  .00005710  00000-0  37663-3 0  9990,2 51468  53.2143 146.5442 0001256 120.0516 240.0601 15.08831568 62296,6917.906,95.438,540.64,538.902,0.0
